# Epoch year = 2006 day = 176.02844893
# Eccentricity = 0.0011562
# Equatorial inclination = 11.4384 deg
# Argument of perigee = 26.4582 deg
# Mean anomaly = 333.5652 deg
# Right Ascension of Ascending Node = 35.2134 deg
# Mean Motion (number of rev/day) = 0.98870114
# BSTAR drag = 1.0000e-04
# Orbit number = 4609
# SDP4 synchronous
# Satellite number
14128
#     Tsince         X                Y                Z            Xdot             Ydot             Zdot
  -1440.0000     32954.38806013   26856.34107716     598.09802455  -1.904798430374   2.321457436990   0.606859354457
  -1420.0000     30548.52301929   29538.34719660    1323.15558738  -2.102553630449   2.145837050207   0.600878001134
  -1400.0000     27914.61901282   31999.85299030    2038.34043842  -2.284632585146   1.954180028119   0.590410331143
  -1380.0000     25072.31961727   34222.46285822    2738.31241769  -2.449668607858   1.747919291226   0.575533949639
  -1360.0000     22042.83222082   36189.56836909    3417.84457716  -2.596423178209   1.528598319838   0.556359738849
  -1340.0000     18848.76899491   37886.47354034    4071.86249937  -2.723795442740   1.297859445304   0.533031029416
  -1320.0000     15513.97611485   39300.50629164    4695.48269974  -2.830830697007   1.057431287210   0.505722511350
  -1300.0000     12063.35409431   40421.11401789    5284.04943788  -2.916727690942   0.809115550543   0.474638901537
  -1280.0000      8522.66938591   41239.94319749    5833.16990627  -2.980844746969   0.554773200940   0.440013369574
  -1260.0000      4918.36056471   41750.90179818    6338.74720372  -3.022704593819   0.296310264637   0.402105751430
  -1240.0000      1277.33830867   41950.20475302    6797.01123074  -3.041997935379   0.035663204600   0.361200545149
  -1220.0000     -2373.21752437   41836.40158070    7204.54696790  -3.038585682998  -0.225215881783   0.317604720868
  -1200.0000     -6006.06269448   41410.38622491    7558.32002947  -3.012499856674  -0.484374161995   0.271645359256
  -1180.0000     -9594.09426201   40675.38892011    7855.69934470  -2.963943142624  -0.739872985981   0.223667129955
  -1160.0000    -13110.55372651   39636.95042752    8094.47662326  -2.893287131666  -0.989802570480   0.174029654522
  -1140.0000    -16529.22847922   38302.87860237    8272.88269833  -2.801069241960  -1.232296505169   0.123104745157
  -1120.0000    -19824.64807789   36683.18792785    8389.60044491  -2.687988373749  -1.465545826858   0.071273566817
  -1100.0000    -22972.27522605   34790.02212982    8443.77427814  -2.554899311263  -1.687812649510   0.018923726490
  -1080.0000    -25948.68823815   32637.56137408    8435.01610466  -2.402805983969  -1.897443119564  -0.033553659074
  -1060.0000    -28731.75582557   30241.91373448    8363.40777244  -2.232853573619  -2.092879754496  -0.085766928379
  -1040.0000    -31300.80123366   27620.99261384    8229.49995106  -2.046319593139  -2.272672954898  -0.137326823467
  -1020.0000    -33636.75511930   24794.38090381    8034.30750093  -1.844604001422  -2.435491649036  -0.187849407221
  -1000.0000    -35722.29639936   21783.18244123    7779.30133394  -1.629218400957  -2.580133018512  -0.236958935667
   -980.0000    -37541.97890901   18609.86337600    7466.39694613  -1.401774511827  -2.705531158398  -0.284290638415
   -960.0000    -39082.34454522   15298.08280056    7097.93959340  -1.163971882043  -2.810764724296  -0.329493420581
   -940.0000    -40332.02088544   11872.51547626    6676.68634515  -0.917585042081  -2.895063432850  -0.372232439814
   -920.0000    -41281.80334366    8358.66676691    6205.78504104  -0.664450115784  -2.957813427143  -0.412191558894
   -900.0000    -41924.72064472    4782.68300778    5688.75054329  -0.406451122555  -2.998561431893  -0.449075634033
   -880.0000    -42256.08404884    1171.15644061    5129.43819065  -0.145505910022  -3.017017735735  -0.482612652143
   -860.0000    -42273.51939067   -2449.07211919    4532.01486923   0.116448054684  -3.013057946091  -0.512555681400
   -840.0000    -41976.98206303   -6051.11198945    3900.92786313   0.377467971306  -2.986723534872  -0.538684630680
   -820.0000    -41368.75478592   -9608.22185928    3240.87160603   0.635620012147  -2.938221172112  -0.560807810568
   -800.0000    -40453.42842607  -13094.00630737    2556.75290270   0.888993415100  -2.867920877918  -0.578763273863
   -780.0000    -39237.86587722  -16482.61060333    1853.65445586   1.135714441339  -2.776352997972  -0.592419945486
   -760.0000    -37731.14950432  -19748.91048369    1136.79730474   1.373959963317  -2.664204048336  -0.601678521984
   -740.0000    -35944.51222722  -22868.69693408     411.50217898   1.601970691763  -2.532311438938  -0.606472143192
   -720.0000    -33891.25357529  -25818.85292713    -316.84957139   1.818063826340  -2.381657177922  -0.606766827814
   -700.0000    -31586.64041667  -28577.52300642   -1042.85565207   2.020645201659  -2.213360535424  -0.602561677757
   -680.0000    -29047.79350036  -31124.27321596   -1761.13255971   2.208220756853  -2.028669755294  -0.593888845790
   -660.0000    -26293.56111972  -33440.24016500   -2466.35502283   2.379407241409  -1.828952901719  -0.580813270730
   -640.0000    -23344.37965129  -35508.26925786   -3153.29518229   2.532942172593  -1.615687828354  -0.563432179892
   -620.0000    -20222.12368297  -37313.03961402   -3816.86078432   2.667692866141  -1.390451459779  -0.541874369408
   -600.0000    -16949.94489359  -38841.17644476   -4452.13261104   2.782664603508  -1.154908320727  -0.516299259098
   -580.0000    -13552.10230702  -40081.34888621   -5054.40051061   2.877007792922  -0.910798497502  -0.486895735767
   -560.0000    -10053.78388577  -41024.35331808   -5619.19803620   2.950024130845  -0.659925022765  -0.453880784229
   -540.0000     -6480.92252310  -41663.18090147   -6142.33512641   3.001171671351  -0.404140896705  -0.417497930528
   -520.0000     -2860.00544615  -41993.06968482   -6619.92900053   3.030068832152  -0.145335666313  -0.378015487742
   -500.0000       782.11993558  -42011.54024916   -7048.43274356   3.036497259489   0.114578226972  -0.335724630107
   -480.0000      4418.44292833  -41718.41490423   -7424.66148866   3.020403551135   0.373679281218  -0.290937303647
   -460.0000      8021.98843187  -41115.82014526   -7745.81605919   2.981899813672   0.630050901883  -0.243983978423
   -440.0000     11566.01456709  -40208.17249128   -8009.50371318   2.921263055240   0.881795280307  -0.195211279520
   -420.0000     15024.21008918  -39002.14756715   -8213.75608824   2.838933401036   1.127047262904  -0.144979482019
   -400.0000     18370.88823849  -37506.63277815   -8357.04401359   2.735511146836   1.363987978213  -0.093659910291
   -380.0000     21581.17703392  -35732.66350430   -8438.28917772   2.611752639114   1.590858226626  -0.041632239490
   -360.0000     24631.20283694  -33693.34399525   -8456.87247652   2.468565055765   1.805971411440   0.010718255469
   -340.0000     27498.26808817  -31403.75247241   -8412.63906563   2.307000045586   2.007726077219   0.063003519250
   -320.0000     30161.02021245  -28880.83178988   -8305.89998980   2.128246312265   2.194617843766   0.114835558692
   -300.0000     32599.61103558  -26143.26619832   -8137.43040255   1.933621173414   2.365250689121   0.165829297370
   -280.0000     34795.84586932  -23211.34452893   -7908.46433016   1.724561108671   2.518347520089   0.215605430306
   -260.0000     36733.31991775  -20106.81213198   -7620.68609222   1.502611455056   2.652759862698   0.263793232588
   -240.0000     38397.54257960  -16852.71076685   -7276.21831307   1.269415185504   2.767476708402   0.310033335324
   -220.0000     39776.04737930  -13473.20904766   -6877.60669012   1.026700949788   2.861632352101   0.353980420836
   -200.0000     40858.48740561   -9993.42343170   -6427.80150308   0.776270371703   2.934513207073   0.395305835347
   -180.0000     41636.71471977   -6439.23284034   -5930.13619576   0.519984820101   2.985563483854   0.433700075034
   -160.0000     42104.84398531   -2837.08600214   -5388.30290925   0.259751585600   3.014389742339   0.468875154935
   -140.0000     42259.29904536     786.19537034   -4806.32533282  -0.002490314861   3.020764222112   0.500566819038
   -120.0000     42098.84232307    4403.61665280   -4188.52900981  -0.264784639225   3.004626935281   0.528536581177
   -100.0000     41624.58663856    7988.21273819   -3539.50919887  -0.525172661758   2.966086486034   0.552573583157
    -80.0000     40839.98938225   11513.24946762   -2864.09683889  -0.781707908880   2.905419609435   0.572496240139
    -60.0000     39750.82890738   14952.42494316   -2167.32245599  -1.032470949179   2.823069411669   0.588153677336
    -40.0000     38365.16335885   18280.06723832   -1454.37861478  -1.275583979554   2.719642325709   0.599426930167
    -20.0000     36693.27188176   21471.32835730    -730.58093201  -1.509225190411   2.595903773563   0.606229904409
      0.0000     34747.57932696   24502.37114079      -1.32832986  -1.731642661907   2.452772615436   0.608510080692
     20.0000     32542.56405761   27350.54987677     727.93764285  -1.941167839001   2.291314354009   0.606248963623
     40.0000     30094.65020147   29994.58150507    1451.77374941  -2.136228349838   2.112733192919   0.599462264445
     60.0000     27422.08498671   32414.70665691    2164.77606362  -2.315360103346   1.918362996353   0.588199817516
     80.0000     24544.80158021   34592.83960526    2861.62082591  -2.477218590411   1.709657182652   0.572545227194
    100.0000     21484.26984118   36512.70473460    3537.10447930  -2.620589204243   1.488177730772   0.552615253223
    120.0000     18263.33435413   38159.96006435    4186.18304794  -2.744396612515   1.255583257743   0.528558931474
    140.0000     14906.04244250   39522.30556719    4804.01016853  -2.847713007602   1.013616368878   0.500556443172
    160.0000     11437.46230329   40589.57618065    5385.97374146  -2.929765222226   0.764090297372   0.468817733873
